MIR-SAT 1               
1 48868U 98067SP  21244.47147227  .00017164  00000-0  29242-3 0  9992
2 48868  51.6429 324.6490 0003414  47.7158 312.4120 15.51476908 11084
PROGRESS-MS 17          
1 48869U 21057A   21244.57067774  .00004569  00000-0  92349-4 0  9991
2 48869  51.6441 325.0120 0003047 341.4395 157.1128 15.48581759300432
ISS (NAUKA)             
1 49044U 21066A   21244.57067774  .00004569  00000-0  92349-4 0  9997
2 49044  51.6441 325.0120 0003047 341.4395 157.1128 15.48581759300438
CYGNUS NG-16            
1 49064U 21072A   21244.57067774  .00004569  00000-0  92349-4 0  9996
2 49064  51.6441 325.0120 0003047 341.4395 157.1128 15.48581759300430
DRAGON CRS-23           
1 49117U 21078A   21244.57067774  .00004569  00000-0  92349-4 0  9991
2 49117  51.6441 325.0120 0003047 341.4395 157.1128 15.48581759300439
