OBJECT_NAME,OBJECT_ID,EPOCH,MEAN_MOTION,ECCENTRICITY,INCLINATION,RA_OF_ASC_NODE,ARG_OF_PERICENTER,MEAN_ANOMALY,EPHEMERIS_TYPE,CLASSIFICATION_TYPE,NORAD_CAT_ID,ELEMENT_SET_NO,REV_AT_EPOCH,BSTAR,MEAN_MOTION_DOT,MEAN_MOTION_DDOT
MIR-SAT 1,1998-067SN,2021-09-01T11:18:55.204128,15.51476908,.0003414,51.6429,324.6490,47.7158,312.4120,0,U,48868,999,1108,.29242E-3,.17164E-3,0
PROGRESS-MS 17,2021-057A,2021-09-01T13:41:46.556736,15.48581759,.0003047,51.6441,325.0120,341.4395,157.1128,0,U,48869,999,30043,.92349E-4,.4569E-4,0
ISS (NAUKA),2021-066A,2021-09-01T13:41:46.556736,15.48581759,.0003047,51.6441,325.0120,341.4395,157.1128,0,U,49044,999,30043,.92349E-4,.4569E-4,0
CYGNUS NG-16,2021-072A,2021-09-01T13:41:46.556736,15.48581759,.0003047,51.6441,325.0120,341.4395,157.1128,0,U,49064,999,30043,.92349E-4,.4569E-4,0
DRAGON CRS-23,2021-078A,2021-09-01T13:41:46.556736,15.48581759,.0003047,51.6441,325.0120,341.4395,157.1128,0,U,49117,999,30043,.92349E-4,.4569E-4,0
